{
  "type": "FeatureCollection",
  "name": "Puri Historical Coastline Vectors",
  "crs": {
    "type": "name",
    "properties": {
      "name": "urn:ogc:def:crs:OGC:1.3:CRS84"
    }
  },
  "metadata": {
    "dataset_classification": "DEMONSTRATION DATASET",
    "description": "Multi-temporal extracted shorelines from high-resolution satellite Earth observation",
    "units": "WGS84 Degrees (Coordinates), Meters (Derived Changes)"
  },
  "features": [
    {
      "type": "Feature",
      "id": "SHORELINE-2016",
      "properties": {
        "period": "2016",
        "year": 2016,
        "observation_date": "2016-03-15",
        "sensor": "Sentinel-2 MSI / Landsat-8 OLI",
        "extraction_method": "Modified Normalized Difference Water Index (MNDWI) + Otsu Thresholding",
        "quality_score": 0.92,
        "tidal_stage": "Mean High Water Spring (MHWS) Corrected",
        "dataset_classification": "DEMONSTRATION DATASET"
      },
      "geometry": {
        "type": "LineString",
        "coordinates": [
          [
            85.77,
            19.75
          ],
          [
            85.772257,
            19.751917
          ],
          [
            85.774589,
            19.753701
          ],
          [
            85.776932,
            19.755456
          ],
          [
            85.779201,
            19.75732
          ],
          [
            85.781448,
            19.759198
          ],
          [
            85.783767,
            19.760929
          ],
          [
            85.786117,
            19.762577
          ],
          [
            85.7884,
            19.764302
          ],
          [
            85.790643,
            19.766057
          ],
          [
            85.792947,
            19.767665
          ],
          [
            85.795299,
            19.769145
          ],
          [
            85.797598,
            19.770667
          ],
          [
            85.79984,
            19.772235
          ],
          [
            85.802128,
            19.773674
          ],
          [
            85.804479,
            19.774952
          ],
          [
            85.806793,
            19.776239
          ],
          [
            85.809039,
            19.777589
          ],
          [
            85.811313,
            19.778841
          ],
          [
            85.813658,
            19.779919
          ],
          [
            85.815986,
            19.780976
          ],
          [
            85.81824,
            19.782113
          ],
          [
            85.8205,
            19.783195
          ],
          [
            85.822836,
            19.784109
          ],
          [
            85.825175,
            19.784978
          ],
          [
            85.82744,
            19.785941
          ],
          [
            85.829691,
            19.786902
          ],
          [
            85.832013,
            19.787715
          ],
          [
            85.834361,
            19.788467
          ],
          [
            85.83664,
            19.789324
          ],
          [
            85.838884,
            19.790233
          ],
          [
            85.841193,
            19.79103
          ],
          [
            85.843545,
            19.791756
          ],
          [
            85.845839,
            19.792589
          ],
          [
            85.848081,
            19.793526
          ],
          [
            85.850373,
            19.794395
          ],
          [
            85.852725,
            19.795189
          ],
          [
            85.855035,
            19.796083
          ],
          [
            85.85728,
            19.797122
          ],
          [
            85.859557,
            19.798143
          ],
          [
            85.861904,
            19.799086
          ],
          [
            85.864229,
            19.800114
          ],
          [
            85.86648,
            19.801313
          ],
          [
            85.868743,
            19.802541
          ],
          [
            85.871082,
            19.803692
          ],
          [
            85.873419,
            19.8049
          ],
          [
            85.87568,
            19.806289
          ],
          [
            85.877933,
            19.807746
          ],
          [
            85.88026,
            19.809129
          ],
          [
            85.882606,
            19.810532
          ],
          [
            85.884881,
            19.812107
          ],
          [
            85.887126,
            19.813779
          ],
          [
            85.889439,
            19.815382
          ],
          [
            85.89179,
            19.816961
          ],
          [
            85.89408,
            19.818684
          ],
          [
            85.896322,
            19.820522
          ],
          [
            85.898619,
            19.822296
          ],
          [
            85.900971,
            19.824002
          ],
          [
            85.903277,
            19.825808
          ],
          [
            85.90552,
            19.827735
          ],
          [
            85.907802,
            19.829606
          ],
          [
            85.910151,
            19.831366
          ],
          [
            85.912471,
            19.833175
          ],
          [
            85.91472,
            19.835099
          ],
          [
            85.916987,
            19.836978
          ],
          [
            85.919329,
            19.838714
          ],
          [
            85.921662,
            19.840441
          ],
          [
            85.92392,
            19.842269
          ],
          [
            85.926176,
            19.84407
          ],
          [
            85.928507,
            19.845706
          ],
          [
            85.93085,
            19.84728
          ],
          [
            85.933121,
            19.848935
          ],
          [
            85.935368,
            19.850583
          ],
          [
            85.937685,
            19.852064
          ],
          [
            85.940035,
            19.853437
          ]
        ]
      }
    },
    {
      "type": "Feature",
      "id": "SHORELINE-2018",
      "properties": {
        "period": "2018",
        "year": 2018,
        "observation_date": "2018-03-15",
        "sensor": "Sentinel-2 MSI / Landsat-8 OLI",
        "extraction_method": "Modified Normalized Difference Water Index (MNDWI) + Otsu Thresholding",
        "quality_score": 0.92,
        "tidal_stage": "Mean High Water Spring (MHWS) Corrected",
        "dataset_classification": "DEMONSTRATION DATASET"
      },
      "geometry": {
        "type": "LineString",
        "coordinates": [
          [
            85.769753,
            19.750421
          ],
          [
            85.77206,
            19.752252
          ],
          [
            85.774412,
            19.754002
          ],
          [
            85.776708,
            19.755837
          ],
          [
            85.77895,
            19.757747
          ],
          [
            85.781241,
            19.759551
          ],
          [
            85.783593,
            19.761226
          ],
          [
            85.785904,
            19.76294
          ],
          [
            85.788148,
            19.764731
          ],
          [
            85.790425,
            19.766428
          ],
          [
            85.792772,
            19.767963
          ],
          [
            85.795097,
            19.769489
          ],
          [
            85.797349,
            19.771092
          ],
          [
            85.799611,
            19.772625
          ],
          [
            85.801676,
            19.774444
          ],
          [
            85.804013,
            19.775745
          ],
          [
            85.806275,
            19.777121
          ],
          [
            85.808528,
            19.778461
          ],
          [
            85.810854,
            19.779622
          ],
          [
            85.8132,
            19.780698
          ],
          [
            85.815476,
            19.781845
          ],
          [
            85.817721,
            19.782997
          ],
          [
            85.820032,
            19.783991
          ],
          [
            85.822384,
            19.784877
          ],
          [
            85.824675,
            19.78583
          ],
          [
            85.826917,
            19.786833
          ],
          [
            85.829213,
            19.787715
          ],
          [
            85.83191,
            19.787891
          ],
          [
            85.834216,
            19.788715
          ],
          [
            85.83646,
            19.789632
          ],
          [
            85.83874,
            19.790478
          ],
          [
            85.841089,
            19.791206
          ],
          [
            85.84341,
            19.791985
          ],
          [
            85.845659,
            19.792895
          ],
          [
            85.847926,
            19.793789
          ],
          [
            85.850267,
            19.794576
          ],
          [
            85.852601,
            19.7954
          ],
          [
            85.85486,
            19.796381
          ],
          [
            85.857115,
            19.797402
          ],
          [
            85.859445,
            19.798334
          ],
          [
            85.861789,
            19.799282
          ],
          [
            85.86406,
            19.8004
          ],
          [
            85.866307,
            19.801607
          ],
          [
            85.868623,
            19.802745
          ],
          [
            85.870974,
            19.803876
          ],
          [
            85.87326,
            19.80517
          ],
          [
            85.875502,
            19.806592
          ],
          [
            85.877803,
            19.807967
          ],
          [
            85.879973,
            19.809618
          ],
          [
            85.882275,
            19.811096
          ],
          [
            85.884517,
            19.812725
          ],
          [
            85.886803,
            19.814329
          ],
          [
            85.889153,
            19.815868
          ],
          [
            85.89147,
            19.817506
          ],
          [
            85.893717,
            19.819301
          ],
          [
            85.895988,
            19.821091
          ],
          [
            85.898331,
            19.822786
          ],
          [
            85.900662,
            19.824529
          ],
          [
            85.902917,
            19.826419
          ],
          [
            85.905176,
            19.828321
          ],
          [
            85.907509,
            19.830104
          ],
          [
            85.909851,
            19.831877
          ],
          [
            85.912118,
            19.833776
          ],
          [
            85.914367,
            19.835699
          ],
          [
            85.916687,
            19.837489
          ],
          [
            85.919036,
            19.839212
          ],
          [
            85.921318,
            19.841028
          ],
          [
            85.923561,
            19.842881
          ],
          [
            85.925866,
            19.844596
          ],
          [
            85.928219,
            19.846195
          ],
          [
            85.930516,
            19.847849
          ],
          [
            85.932758,
            19.849552
          ],
          [
            85.935048,
            19.851128
          ],
          [
            85.937399,
            19.85255
          ],
          [
            85.939712,
            19.853987
          ]
        ]
      }
    },
    {
      "type": "Feature",
      "id": "SHORELINE-2020",
      "properties": {
        "period": "2020",
        "year": 2020,
        "observation_date": "2020-03-15",
        "sensor": "Sentinel-2 MSI / Landsat-8 OLI",
        "extraction_method": "Modified Normalized Difference Water Index (MNDWI) + Otsu Thresholding",
        "quality_score": 0.96,
        "tidal_stage": "Mean High Water Spring (MHWS) Corrected",
        "dataset_classification": "DEMONSTRATION DATASET"
      },
      "geometry": {
        "type": "LineString",
        "coordinates": [
          [
            85.769334,
            19.751133
          ],
          [
            85.771683,
            19.752894
          ],
          [
            85.774005,
            19.754695
          ],
          [
            85.776254,
            19.756608
          ],
          [
            85.77852,
            19.758477
          ],
          [
            85.780861,
            19.760198
          ],
          [
            85.783196,
            19.761902
          ],
          [
            85.785455,
            19.763703
          ],
          [
            85.78771,
            19.765478
          ],
          [
            85.790039,
            19.767086
          ],
          [
            85.792383,
            19.768624
          ],
          [
            85.794655,
            19.77024
          ],
          [
            85.796902,
            19.771852
          ],
          [
            85.799217,
            19.773296
          ],
          [
            85.800615,
            19.77625
          ],
          [
            85.802902,
            19.777637
          ],
          [
            85.805144,
            19.779047
          ],
          [
            85.807444,
            19.780305
          ],
          [
            85.809796,
            19.781422
          ],
          [
            85.812099,
            19.782572
          ],
          [
            85.814342,
            19.783775
          ],
          [
            85.816626,
            19.78486
          ],
          [
            85.818976,
            19.785789
          ],
          [
            85.821294,
            19.786733
          ],
          [
            85.823541,
            19.787759
          ],
          [
            85.825811,
            19.788714
          ],
          [
            85.828154,
            19.789517
          ],
          [
            85.831631,
            19.788365
          ],
          [
            85.833888,
            19.789274
          ],
          [
            85.836145,
            19.790167
          ],
          [
            85.838478,
            19.790925
          ],
          [
            85.84082,
            19.791664
          ],
          [
            85.843088,
            19.792533
          ],
          [
            85.845337,
            19.793444
          ],
          [
            85.847656,
            19.794249
          ],
          [
            85.850005,
            19.795022
          ],
          [
            85.852288,
            19.795933
          ],
          [
            85.854531,
            19.796941
          ],
          [
            85.856835,
            19.797878
          ],
          [
            85.859188,
            19.798771
          ],
          [
            85.861486,
            19.799799
          ],
          [
            85.863728,
            19.800966
          ],
          [
            85.866017,
            19.802101
          ],
          [
            85.868368,
            19.803179
          ],
          [
            85.870681,
            19.804374
          ],
          [
            85.872927,
            19.805737
          ],
          [
            85.875201,
            19.807104
          ],
          [
            85.877547,
            19.808403
          ],
          [
            85.87923,
            19.810882
          ],
          [
            85.881484,
            19.812443
          ],
          [
            85.883744,
            19.814041
          ],
          [
            85.886081,
            19.815558
          ],
          [
            85.88842,
            19.817116
          ],
          [
            85.890684,
            19.818844
          ],
          [
            85.892935,
            19.820632
          ],
          [
            85.895259,
            19.822332
          ],
          [
            85.897606,
            19.82402
          ],
          [
            85.899884,
            19.825852
          ],
          [
            85.902128,
            19.827762
          ],
          [
            85.904438,
            19.829577
          ],
          [
            85.90679,
            19.831328
          ],
          [
            85.909083,
            19.833184
          ],
          [
            85.911325,
            19.835126
          ],
          [
            85.913618,
            19.836973
          ],
          [
            85.91597,
            19.838709
          ],
          [
            85.918279,
            19.840501
          ],
          [
            85.920523,
            19.84238
          ],
          [
            85.922802,
            19.844173
          ],
          [
            85.925149,
            19.845817
          ],
          [
            85.927473,
            19.847465
          ],
          [
            85.929723,
            19.849198
          ],
          [
            85.931988,
            19.850863
          ],
          [
            85.934327,
            19.852354
          ],
          [
            85.936663,
            19.853802
          ],
          [
            85.938924,
            19.855328
          ]
        ]
      }
    },
    {
      "type": "Feature",
      "id": "SHORELINE-2022",
      "properties": {
        "period": "2022",
        "year": 2022,
        "observation_date": "2022-03-15",
        "sensor": "Sentinel-2 MSI / Landsat-8 OLI",
        "extraction_method": "Modified Normalized Difference Water Index (MNDWI) + Otsu Thresholding",
        "quality_score": 0.96,
        "tidal_stage": "Mean High Water Spring (MHWS) Corrected",
        "dataset_classification": "DEMONSTRATION DATASET"
      },
      "geometry": {
        "type": "LineString",
        "coordinates": [
          [
            85.769153,
            19.751442
          ],
          [
            85.771495,
            19.753213
          ],
          [
            85.773764,
            19.755105
          ],
          [
            85.776012,
            19.757021
          ],
          [
            85.778331,
            19.7588
          ],
          [
            85.780681,
            19.760505
          ],
          [
            85.782964,
            19.762296
          ],
          [
            85.785207,
            19.764126
          ],
          [
            85.78751,
            19.765817
          ],
          [
            85.789863,
            19.767385
          ],
          [
            85.792162,
            19.769001
          ],
          [
            85.794404,
            19.770668
          ],
          [
            85.796692,
            19.772209
          ],
          [
            85.799043,
            19.773592
          ],
          [
            85.80013,
            19.777074
          ],
          [
            85.802376,
            19.778531
          ],
          [
            85.804649,
            19.779889
          ],
          [
            85.806995,
            19.78107
          ],
          [
            85.809323,
            19.782228
          ],
          [
            85.811577,
            19.783461
          ],
          [
            85.813837,
            19.784634
          ],
          [
            85.816172,
            19.785632
          ],
          [
            85.818512,
            19.786579
          ],
          [
            85.820777,
            19.787612
          ],
          [
            85.823027,
            19.788634
          ],
          [
            85.82535,
            19.789499
          ],
          [
            85.827698,
            19.790293
          ],
          [
            85.831468,
            19.788644
          ],
          [
            85.833712,
            19.789573
          ],
          [
            85.83602,
            19.79038
          ],
          [
            85.838372,
            19.791105
          ],
          [
            85.840666,
            19.791926
          ],
          [
            85.842908,
            19.792839
          ],
          [
            85.845201,
            19.793675
          ],
          [
            85.847553,
            19.794425
          ],
          [
            85.849863,
            19.795265
          ],
          [
            85.852107,
            19.796241
          ],
          [
            85.854384,
            19.797191
          ],
          [
            85.856732,
            19.798055
          ],
          [
            85.859056,
            19.798996
          ],
          [
            85.861307,
            19.800103
          ],
          [
            85.863571,
            19.801233
          ],
          [
            85.86591,
            19.802283
          ],
          [
            85.868246,
            19.803387
          ],
          [
            85.870508,
            19.80467
          ],
          [
            85.872761,
            19.80602
          ],
          [
            85.875087,
            19.807298
          ],
          [
            85.877433,
            19.808596
          ],
          [
            85.878882,
            19.811476
          ],
          [
            85.881127,
            19.81305
          ],
          [
            85.88344,
            19.81456
          ],
          [
            85.885791,
            19.816051
          ],
          [
            85.888081,
            19.817694
          ],
          [
            85.890323,
            19.819459
          ],
          [
            85.89262,
            19.821169
          ],
          [
            85.894972,
            19.822819
          ],
          [
            85.897278,
            19.824579
          ],
          [
            85.899521,
            19.826471
          ],
          [
            85.901803,
            19.828317
          ],
          [
            85.904152,
            19.830063
          ],
          [
            85.906472,
            19.831869
          ],
          [
            85.908721,
            19.833801
          ],
          [
            85.910988,
            19.835699
          ],
          [
            85.91333,
            19.837464
          ],
          [
            85.915663,
            19.839232
          ],
          [
            85.917921,
            19.84111
          ],
          [
            85.920177,
            19.84297
          ],
          [
            85.922508,
            19.844674
          ],
          [
            85.924851,
            19.846324
          ],
          [
            85.927122,
            19.848063
          ],
          [
            85.929369,
            19.849801
          ],
          [
            85.931686,
            19.851377
          ],
          [
            85.934036,
            19.85285
          ],
          [
            85.936321,
            19.854385
          ],
          [
            85.938564,
            19.855941
          ]
        ]
      }
    },
    {
      "type": "Feature",
      "id": "SHORELINE-2024",
      "properties": {
        "period": "2024",
        "year": 2024,
        "observation_date": "2024-03-15",
        "sensor": "Sentinel-2 MSI / Landsat-8 OLI",
        "extraction_method": "Modified Normalized Difference Water Index (MNDWI) + Otsu Thresholding",
        "quality_score": 0.96,
        "tidal_stage": "Mean High Water Spring (MHWS) Corrected",
        "dataset_classification": "DEMONSTRATION DATASET"
      },
      "geometry": {
        "type": "LineString",
        "coordinates": [
          [
            85.768976,
            19.751743
          ],
          [
            85.771271,
            19.753595
          ],
          [
            85.773513,
            19.755532
          ],
          [
            85.775805,
            19.757373
          ],
          [
            85.778157,
            19.759096
          ],
          [
            85.780467,
            19.760868
          ],
          [
            85.782712,
            19.762725
          ],
          [
            85.784989,
            19.764497
          ],
          [
            85.787335,
            19.766114
          ],
          [
            85.789661,
            19.767729
          ],
          [
            85.791912,
            19.769426
          ],
          [
            85.794175,
            19.771058
          ],
          [
            85.796513,
            19.772513
          ],
          [
            85.798851,
            19.77392
          ],
          [
            85.799612,
            19.777956
          ],
          [
            85.801864,
            19.779403
          ],
          [
            85.80419,
            19.78067
          ],
          [
            85.806537,
            19.781849
          ],
          [
            85.808812,
            19.783097
          ],
          [
            85.811058,
            19.784345
          ],
          [
            85.813369,
            19.78543
          ],
          [
            85.815721,
            19.786401
          ],
          [
            85.818011,
            19.787431
          ],
          [
            85.820253,
            19.788504
          ],
          [
            85.82255,
            19.789447
          ],
          [
            85.824902,
            19.790262
          ],
          [
            85.827208,
            19.791127
          ],
          [
            85.831287,
            19.788952
          ],
          [
            85.833568,
            19.789818
          ],
          [
            85.835917,
            19.790556
          ],
          [
            85.838238,
            19.791334
          ],
          [
            85.840487,
            19.792231
          ],
          [
            85.842754,
            19.793103
          ],
          [
            85.845095,
            19.793856
          ],
          [
            85.847429,
            19.794636
          ],
          [
            85.849687,
            19.795563
          ],
          [
            85.851942,
            19.796521
          ],
          [
            85.854272,
            19.797381
          ],
          [
            85.856617,
            19.798251
          ],
          [
            85.858888,
            19.799282
          ],
          [
            85.861135,
            19.800396
          ],
          [
            85.863451,
            19.801438
          ],
          [
            85.865801,
            19.802468
          ],
          [
            85.868087,
            19.803658
          ],
          [
            85.87033,
            19.804973
          ],
          [
            85.872631,
            19.806241
          ],
          [
            85.874983,
            19.807475
          ],
          [
            85.877285,
            19.808849
          ],
          [
            85.878518,
            19.812094
          ],
          [
            85.880804,
            19.8136
          ],
          [
            85.883154,
            19.815046
          ],
          [
            85.885471,
            19.816596
          ],
          [
            85.887718,
            19.818311
          ],
          [
            85.889989,
            19.820028
          ],
          [
            85.892332,
            19.821658
          ],
          [
            85.894663,
            19.823346
          ],
          [
            85.896918,
            19.825191
          ],
          [
            85.899177,
            19.827057
          ],
          [
            85.90151,
            19.828815
          ],
          [
            85.903852,
            19.830574
          ],
          [
            85.906119,
            19.83247
          ],
          [
            85.908368,
            19.834401
          ],
          [
            85.910688,
            19.83621
          ],
          [
            85.913037,
            19.837962
          ],
          [
            85.915319,
            19.839818
          ],
          [
            85.917562,
            19.841721
          ],
          [
            85.919867,
            19.843496
          ],
          [
            85.92222,
            19.845164
          ],
          [
            85.924517,
            19.846894
          ],
          [
            85.926759,
            19.848681
          ],
          [
            85.929049,
            19.850346
          ],
          [
            85.9314,
            19.851863
          ],
          [
            85.933713,
            19.853401
          ],
          [
            85.935958,
            19.855003
          ],
          [
            85.938233,
            19.856504
          ]
        ]
      }
    },
    {
      "type": "Feature",
      "id": "SHORELINE-2026",
      "properties": {
        "period": "2026",
        "year": 2026,
        "observation_date": "2026-03-15",
        "sensor": "Sentinel-2 MSI / Landsat-8 OLI",
        "extraction_method": "Modified Normalized Difference Water Index (MNDWI) + Otsu Thresholding",
        "quality_score": 0.96,
        "tidal_stage": "Mean High Water Spring (MHWS) Corrected",
        "dataset_classification": "DEMONSTRATION DATASET"
      },
      "geometry": {
        "type": "LineString",
        "coordinates": [
          [
            85.768771,
            19.752091
          ],
          [
            85.771021,
            19.754021
          ],
          [
            85.773287,
            19.755917
          ],
          [
            85.775627,
            19.757676
          ],
          [
            85.777962,
            19.759427
          ],
          [
            85.780222,
            19.761286
          ],
          [
            85.782476,
            19.763127
          ],
          [
            85.784805,
            19.764809
          ],
          [
            85.78715,
            19.76643
          ],
          [
            85.789422,
            19.768135
          ],
          [
            85.791668,
            19.769841
          ],
          [
            85.793984,
            19.771384
          ],
          [
            85.796334,
            19.772818
          ],
          [
            85.798621,
            19.77431
          ],
          [
            85.799089,
            19.778847
          ],
          [
            85.801389,
            19.780212
          ],
          [
            85.803742,
            19.781434
          ],
          [
            85.806044,
            19.782688
          ],
          [
            85.808287,
            19.783991
          ],
          [
            85.810571,
            19.785172
          ],
          [
            85.812921,
            19.786193
          ],
          [
            85.815239,
            19.787221
          ],
          [
            85.817487,
            19.788325
          ],
          [
            85.819756,
            19.78935
          ],
          [
            85.8221,
            19.790213
          ],
          [
            85.824431,
            19.791064
          ],
          [
            85.826687,
            19.792014
          ],
          [
            85.831125,
            19.789228
          ],
          [
            85.833457,
            19.790006
          ],
          [
            85.8358,
            19.790756
          ],
          [
            85.838068,
            19.791623
          ],
          [
            85.840316,
            19.792522
          ],
          [
            85.842636,
            19.793304
          ],
          [
            85.844985,
            19.794043
          ],
          [
            85.847267,
            19.79491
          ],
          [
            85.84951,
            19.795864
          ],
          [
            85.851815,
            19.796738
          ],
          [
            85.854167,
            19.79756
          ],
          [
            85.856465,
            19.798508
          ],
          [
            85.858708,
            19.799589
          ],
          [
            85.860996,
            19.800632
          ],
          [
            85.863348,
            19.801613
          ],
          [
            85.865661,
            19.802707
          ],
          [
            85.867907,
            19.803965
          ],
          [
            85.870181,
            19.805227
          ],
          [
            85.872526,
            19.806419
          ],
          [
            85.874854,
            19.807696
          ],
          [
            85.877107,
            19.809152
          ],
          [
            85.878176,
            19.812676
          ],
          [
            85.880513,
            19.814096
          ],
          [
            85.882852,
            19.81556
          ],
          [
            85.885116,
            19.8172
          ],
          [
            85.887367,
            19.818909
          ],
          [
            85.889691,
            19.820535
          ],
          [
            85.892038,
            19.822159
          ],
          [
            85.894316,
            19.823936
          ],
          [
            85.89656,
            19.8258
          ],
          [
            85.898869,
            19.827579
          ],
          [
            85.901222,
            19.829306
          ],
          [
            85.903515,
            19.831148
          ],
          [
            85.905757,
            19.833086
          ],
          [
            85.90805,
            19.834942
          ],
          [
            85.910402,
            19.836696
          ],
          [
            85.912711,
            19.838517
          ],
          [
            85.914955,
            19.840437
          ],
          [
            85.917234,
            19.84228
          ],
          [
            85.919581,
            19.843983
          ],
          [
            85.921905,
            19.8457
          ],
          [
            85.924155,
            19.847509
          ],
          [
            85.92642,
            19.849258
          ],
          [
            85.928759,
            19.850839
          ],
          [
            85.931095,
            19.852382
          ],
          [
            85.933356,
            19.854008
          ],
          [
            85.935609,
            19.855596
          ],
          [
            85.937937,
            19.857008
          ]
        ]
      }
    }
  ]
}